OBJECT_NAME,OBJECT_ID,EPOCH,MEAN_MOTION,ECCENTRICITY,INCLINATION,RA_OF_ASC_NODE,ARG_OF_PERICENTER,MEAN_ANOMALY,EPHEMERIS_TYPE,CLASSIFICATION_TYPE,NORAD_CAT_ID,ELEMENT_SET_NO,REV_AT_EPOCH,BSTAR,MEAN_MOTION_DOT,MEAN_MOTION_DDOT
SHARJAHSAT-1,2023-001CZ,2026-07-13T06:23:16.073664,15.50068933,.00049913,97.3160,263.4098,27.5796,332.5720,0,U,55104,999,19653,.22903473E-3,.12781E-3,0
HORUS 1,2023-025A,2026-07-13T07:05:30.921792,15.23526000,.0002871,97.3460,268.3409,116.1220,244.0313,0,U,55690,999,18802,.13969022E-3,.3266E-4,0
HORUS 2,2023-032A,2026-07-13T06:21:45.763200,15.23332137,.00009464,97.3530,269.1415,133.4523,226.6793,0,U,55844,999,18545,.13552648E-3,.3148E-4,0
GLOBAL-19,2023-041B,2026-07-13T00:05:06.750240,15.38645913,.00093255,42.0024,51.2695,204.1950,155.8453,0,U,55982,999,18590,.25300389E-3,.9634E-4,0
ION SCV-010,2023-054Q,2026-07-12T17:28:49.959264,15.26410810,.00145134,97.3751,82.9031,111.9392,248.3391,0,U,56192,999,18009,.11008963E-3,.28E-4,0
TELEOS-2,2023-057C,2026-07-13T02:00:06.410592,14.96416588,.00009414,9.9892,15.6203,275.2393,84.7713,0,U,56310,999,17668,.22341609E-3,.3291E-4,0
SNIPE 4,2023-072B,2026-07-13T06:52:45.906816,15.43342890,.0004601,97.5230,41.1359,213.2914,146.8045,0,U,56744,999,17413,.31105016E-3,.13788E-3,0
SNIPE 2,2023-072C,2026-07-13T07:34:18.735168,15.48159676,.00030669,97.5216,44.3970,243.2260,116.8677,0,U,56745,999,17428,.35687959E-3,.1868E-3,0
2023-072G,2023-072G,2026-07-13T07:35:37.478400,15.52054049,.00022279,97.4873,43.2328,211.4524,148.6595,0,U,56749,999,17451,.33873824E-3,.20342E-3,0
GEISAT PRECURSOR,2023-084C,2026-07-13T07:08:01.734720,15.34993339,.00043261,97.6249,336.1204,238.7505,121.3314,0,U,56934,999,17153,.13419288E-3,.447E-4,0
BLACKJACK ACES-3,2023-084U,2026-07-13T07:54:12.652704,15.18714838,.00007308,97.6237,329.7268,257.8686,102.2466,0,U,56950,999,17113,.1584388E-3,.3217E-4,0
BLACKJACK ACES-2,2023-084Z,2026-07-13T03:18:09.501408,15.18720668,.00014658,97.6234,329.6175,139.5363,220.5981,0,U,56955,999,17111,.20516761E-3,.4188E-4,0
BLACKJACK ACES-1,2023-084AA,2026-07-13T07:44:52.737504,15.18769244,.0001838,97.6225,329.5757,121.6409,238.5005,0,U,56956,999,12086,.20563897E-3,.4204E-4,0
ION SCV-011,2023-084AB,2026-07-13T02:43:16.013856,15.29084137,.00060433,98.1374,23.7995,314.1526,45.9215,0,U,56957,999,16977,.10856852E-3,.2977E-4,0
GHOST-3,2023-084AC,2026-07-13T05:00:40.685472,15.48740210,.00067004,97.6231,344.1969,191.2934,168.8167,0,U,56958,999,17204,.22633736E-3,.1205E-3,0
AFR-1,2023-084AJ,2026-07-13T06:50:08.593152,15.28766407,.00091664,97.6302,331.6121,242.6400,117.3907,0,U,56964,999,17121,.95882988E-4,.2604E-4,0
METEOR-M2 3,2023-091A,2026-07-13T07:21:03.144096,14.24048803,.00051471,98.6069,248.7483,94.5293,265.6474,0,U,57166,999,15823,.13281936E-4,-.13E-6,0
UMKA 1 (RS40S),2023-091G,2026-07-13T06:40:34.240512,15.21108338,.00132302,97.5041,252.8775,35.8443,324.3678,0,U,57172,999,16797,.14950806E-3,.3262E-4,0
2023-091H,2023-091H,2026-07-13T07:07:05.404512,15.29190261,.00097666,97.5041,257.7073,31.6439,328.5386,0,U,57173,999,16829,.23333983E-3,.6541E-4,0
2023-091J,2023-091J,2026-07-13T07:04:02.378208,15.14104055,.00145223,97.5043,247.0191,62.3250,297.9454,0,U,57174,999,16758,.1337403E-3,.2374E-4,0
CUBEBEL 2 (EU11S),2023-091K,2026-07-13T06:54:32.633280,15.29794337,.00097589,97.5043,257.7470,32.9209,327.2637,0,U,57175,999,16829,.26122727E-3,.7471E-4,0
SITRO-AIS 5 (KATYS),2023-091L,2026-07-13T07:12:17.681760,15.30038609,.00108359,97.5053,258.4560,19.1118,341.0526,0,U,57176,999,16833,.24344421E-3,.7011E-4,0
ZORKIY-2M 1,2023-091M,2026-07-13T06:18:21.421152,15.21234475,.00136049,97.5082,253.1484,32.8492,327.3587,0,U,57177,999,16796,.18331007E-3,.4031E-4,0
CUBESX-HSE 3 (RS42S),2023-091N,2026-07-13T05:49:35.964768,15.31854227,.00098695,97.5085,260.1684,9.0302,351.1115,0,U,57178,999,16841,.25268829E-3,.7703E-4,0
MONITOR-3 (RS58S),2023-091Q,2026-07-13T06:14:56.593536,15.28349287,.0011205,97.5076,257.9045,16.5924,343.5680,0,U,57180,999,16827,.22891606E-3,.6254E-4,0
MONITOR-4 (RS57S),2023-091S,2026-07-13T07:16:58.164672,15.28435958,.00111961,97.5070,257.9205,16.7048,343.4558,0,U,57182,999,16828,.22222168E-3,.6085E-4,0
MONITOR-2 (RS39S),2023-091U,2026-07-13T06:24:10.834848,15.19143959,.00115823,97.5063,252.3826,30.3531,329.8372,0,U,57184,999,16791,.13189813E-3,.2706E-4,0
SVYATOBOR 1 (RS60S),2023-091X,2026-07-13T06:34:45.650208,15.27043244,.00089397,97.5082,258.2407,11.5167,348.6275,0,U,57187,999,16829,.19677218E-3,.515E-4,0
HORS 1,2023-091Y,2026-07-13T06:11:11.281344,15.27161460,.00084034,97.5059,257.9833,11.8785,348.2651,0,U,57188,999,16829,.21331382E-3,.561E-4,0
VIZARD-METEO (RS38S),2023-091Z,2026-07-13T06:19:52.135968,15.36836081,.00058318,97.5086,264.2845,347.6613,12.4487,0,U,57189,999,16869,.29129394E-3,.10411E-3,0
