SHARJAHSAT-1            
1 55104U 23001CZ  26194.26615826  .00012781  00000+0  22903-3 0  9996
2 55104  97.3160 263.4098 0004991  27.5796 332.5720 15.50068933196530
HORUS 1                 
1 55690U 23025A   26194.29549678  .00003266  00000+0  13969-3 0  9996
2 55690  97.3460 268.3409 0002871 116.1220 244.0313 15.23526000188029
HORUS 2                 
1 55844U 23032A   26194.26511300  .00003148  00000+0  13553-3 0  9991
2 55844  97.3530 269.1415 0000946 133.4523 226.6793 15.23332137185451
GLOBAL-19               
1 55982U 23041B   26194.00355035  .00009634  00000+0  25300-3 0  9996
2 55982  42.0024  51.2695 0009325 204.1950 155.8453 15.38645913185900
ION SCV-010             
1 56192U 23054Q   26193.72835601  .00002800  00000+0  11009-3 0  9993
2 56192  97.3751  82.9031 0014513 111.9392 248.3391 15.26410810180096
TELEOS-2                
1 56310U 23057C   26194.08340753  .00003291  00000+0  22342-3 0  9994
2 56310   9.9892  15.6203 0000941 275.2393  84.7713 14.96416588176686
SNIPE 4                 
1 56744U 23072B   26194.28664244  .00013788  00000+0  31105-3 0  9997
2 56744  97.5230  41.1359 0004601 213.2914 146.8045 15.43342890174133
SNIPE 2                 
1 56745U 23072C   26194.31549462  .00018680  00000+0  35688-3 0  9992
2 56745  97.5216  44.3970 0003066 243.2260 116.8677 15.48159676174280
2023-072G               
1 56749U 23072G   26194.31640600  .00020342  00000+0  33874-3 0  9995
2 56749  97.4873  43.2328 0002227 211.4524 148.6595 15.52054049174516
GEISAT PRECURSOR        
1 56934U 23084C   26194.29724230  .00004470  00000+0  13419-3 0  9990
2 56934  97.6249 336.1204 0004326 238.7505 121.3314 15.34993339171531
BLACKJACK ACES-3        
1 56950U 23084U   26194.32931311  .00003217  00000+0  15844-3 0  9994
2 56950  97.6237 329.7268 0000730 257.8686 102.2466 15.18714838171130
BLACKJACK ACES-2        
1 56955U 23084Z   26194.13760997  .00004188  00000+0  20517-3 0  9999
2 56955  97.6234 329.6175 0001465 139.5363 220.5981 15.18720668171114
BLACKJACK ACES-1        
1 56956U 23084AA  26194.32283261  .00004204  00000+0  20564-3 0  9996
2 56956  97.6225 329.5757 0001838 121.6409 238.5005 15.18769244120862
ION SCV-011             
1 56957U 23084AB  26194.11337979  .00002977  00000+0  10857-3 0  9999
2 56957  98.1374  23.7995 0006043 314.1526  45.9215 15.29084137169772
GHOST-3                 
1 56958U 23084AC  26194.20880423  .00012050  00000+0  22634-3 0  9996
2 56958  97.6231 344.1969 0006700 191.2934 168.8167 15.48740210172044
AFR-1                   
1 56964U 23084AJ  26194.28482168  .00002604  00000+0  95883-4 0  9996
2 56964  97.6302 331.6121 0009166 242.6400 117.3907 15.28766407171212
METEOR-M2 3             
1 57166U 23091A   26194.30628639 -.00000013  00000+0  13282-4 0  9993
2 57166  98.6069 248.7483 0005147  94.5293 265.6474 14.24048803158237
UMKA 1 (RS40S)          
1 57172U 23091G   26194.27817408  .00003262  00000+0  14951-3 0  9991
2 57172  97.5041 252.8775 0013230  35.8443 324.3678 15.21108338167977
2023-091H               
1 57173U 23091H   26194.29659033  .00006541  00000+0  23334-3 0  9990
2 57173  97.5041 257.7073 0009766  31.6439 328.5386 15.29190261168293
2023-091J               
1 57174U 23091J   26194.29447197  .00002374  00000+0  13374-3 0  9990
2 57174  97.5043 247.0191 0014522  62.3250 297.9454 15.14104055167583
CUBEBEL 2 (EU11S)       
1 57175U 23091K   26194.28787770  .00007471  00000+0  26123-3 0  9993
2 57175  97.5043 257.7470 0009758  32.9209 327.2637 15.29794337168297
SITRO-AIS 5 (KATYS)     
1 57176U 23091L   26194.30020465  .00007011  00000+0  24344-3 0  9991
2 57176  97.5053 258.4560 0010835  19.1118 341.0526 15.30038609168332
ZORKIY-2M 1             
1 57177U 23091M   26194.26274793  .00004031  00000+0  18331-3 0  9990
2 57177  97.5082 253.1484 0013604  32.8492 327.3587 15.21234475167967
CUBESX-HSE 3 (RS42S)    
1 57178U 23091N   26194.24277737  .00007703  00000+0  25269-3 0  9997
2 57178  97.5085 260.1684 0009869   9.0302 351.1115 15.31854227168412
MONITOR-3 (RS58S)       
1 57180U 23091Q   26194.26037724  .00006254  00000+0  22892-3 0  9991
2 57180  97.5076 257.9045 0011205  16.5924 343.5680 15.28349287168277
MONITOR-4 (RS57S)       
1 57182U 23091S   26194.30345098  .00006085  00000+0  22222-3 0  9993
2 57182  97.5070 257.9205 0011196  16.7048 343.4558 15.28435958168284
MONITOR-2 (RS39S)       
1 57184U 23091U   26194.26679207  .00002706  00000+0  13190-3 0  9992
2 57184  97.5063 252.3826 0011582  30.3531 329.8372 15.19143959167912
SVYATOBOR 1 (RS60S)     
1 57187U 23091X   26194.27413947  .00005150  00000+0  19677-3 0  9995
2 57187  97.5082 258.2407 0008939  11.5167 348.6275 15.27043244168292
HORS 1                  
1 57188U 23091Y   26194.25776946  .00005610  00000+0  21331-3 0  9996
2 57188  97.5059 257.9833 0008403  11.8785 348.2651 15.27161460168296
VIZARD-METEO (RS38S)    
1 57189U 23091Z   26194.26379787  .00010411  00000+0  29129-3 0  9998
2 57189  97.5086 264.2845 0005831 347.6613  12.4487 15.36836081168692
